[
    {
        "Altitude(m)": 702793.2122320025,
        "Argument of Periapsis(deg)": 0.009112096949301655,
        "Eccentricity": 0.0,
        "Inclination(deg)": 45.0,
        "Latitude(deg)": 16.408135975550877,
        "Longitude(deg)": 122.35627138263148,
        "Mean Anomaly(deg)": 156.49927331798463,
        "RAAN(deg)": 59.991398446833436,
        "Satellite Name": "Constellation 1 273",
        "Satellite Number": 273,
        "Semi-Major Axis(m)": 7083131.272910544,
        "Time(s)": 152
    },
    {
        "Altitude(m)": 702791.2704374219,
        "Argument of Periapsis(deg)": 0.009172044955547059,
        "Eccentricity": 0.0,
        "Inclination(deg)": 45.0,
        "Latitude(deg)": 16.366826731730853,
        "Longitude(deg)": 122.39871872229347,
        "Mean Anomaly(deg)": 156.55997445823456,
        "RAAN(deg)": 59.99134185766786,
        "Satellite Name": "Constellation 1 273",
        "Satellite Number": 273,
        "Semi-Major Axis(m)": 7083131.272910544,
        "Time(s)": 153
    },
    {
        "Altitude(m)": 702789.3451365998,
        "Argument of Periapsis(deg)": 0.009231992961792466,
        "Eccentricity": 0.0,
        "Inclination(deg)": 45.0,
        "Latitude(deg)": 16.32550706801686,
        "Longitude(deg)": 122.44114645346446,
        "Mean Anomaly(deg)": 156.62067559848444,
        "RAAN(deg)": 59.99128526850229,
        "Satellite Name": "Constellation 1 273",
        "Satellite Number": 273,
        "Semi-Major Axis(m)": 7083131.272910544,
        "Time(s)": 154
    },
    {
        "Altitude(m)": 702787.4363557262,
        "Argument of Periapsis(deg)": 0.009291940968037872,
        "Eccentricity": 0.0,
        "Inclination(deg)": 45.0,
        "Latitude(deg)": 16.28417701648105,
        "Longitude(deg)": 122.48355463161795,
        "Mean Anomaly(deg)": 156.68137673873437,
        "RAAN(deg)": 59.99122867933672,
        "Satellite Name": "Constellation 1 273",
        "Satellite Number": 273,
        "Semi-Major Axis(m)": 7083131.272910544,
        "Time(s)": 155
    },
    {
        "Altitude(m)": 702785.5441209385,
        "Argument of Periapsis(deg)": 0.009351888974283276,
        "Eccentricity": 0.0,
        "Inclination(deg)": 45.0,
        "Latitude(deg)": 16.24283660915734,
        "Longitude(deg)": 122.52594314409944,
        "Mean Anomaly(deg)": 156.74207787898422,
        "RAAN(deg)": 59.99117209017115,
        "Satellite Name": "Constellation 1 273",
        "Satellite Number": 273,
        "Semi-Major Axis(m)": 7083131.272910544,
        "Time(s)": 156
    },
    {
        "Altitude(m)": 702783.6684582897,
        "Argument of Periapsis(deg)": 0.00941183698052868,
        "Eccentricity": 0.0,
        "Inclination(deg)": 45.0,
        "Latitude(deg)": 16.20148587804104,
        "Longitude(deg)": 122.56831238251458,
        "Mean Anomaly(deg)": 156.80277901923415,
        "RAAN(deg)": 59.99111550100558,
        "Satellite Name": "Constellation 1 273",
        "Satellite Number": 273,
        "Semi-Major Axis(m)": 7083131.272910544,
        "Time(s)": 157
    },
    {
        "Altitude(m)": 702781.8093937808,
        "Argument of Periapsis(deg)": 0.009471784986774088,
        "Eccentricity": 0.0,
        "Inclination(deg)": 45.0,
        "Latitude(deg)": 16.160124855089737,
        "Longitude(deg)": 122.61066223414669,
        "Mean Anomaly(deg)": 156.86348015948403,
        "RAAN(deg)": 59.991058911840014,
        "Satellite Name": "Constellation 1 273",
        "Satellite Number": 273,
        "Semi-Major Axis(m)": 7083131.272910544,
        "Time(s)": 158
    },
    {
        "Altitude(m)": 702779.9669533364,
        "Argument of Periapsis(deg)": 0.009531732993019492,
        "Eccentricity": 0.0,
        "Inclination(deg)": 45.0,
        "Latitude(deg)": 16.118753572222793,
        "Longitude(deg)": 122.65299275434538,
        "Mean Anomaly(deg)": 156.92418129973396,
        "RAAN(deg)": 59.99100232267445,
        "Satellite Name": "Constellation 1 273",
        "Satellite Number": 273,
        "Semi-Major Axis(m)": 7083131.272910544,
        "Time(s)": 159
    },
    {
        "Altitude(m)": 702778.141162815,
        "Argument of Periapsis(deg)": 0.009591680999264898,
        "Eccentricity": 0.0,
        "Inclination(deg)": 45.0,
        "Latitude(deg)": 16.077372061321814,
        "Longitude(deg)": 122.69530399842891,
        "Mean Anomaly(deg)": 156.9848824399838,
        "RAAN(deg)": 59.99094573350888,
        "Satellite Name": "Constellation 1 273",
        "Satellite Number": 273,
        "Semi-Major Axis(m)": 7083131.272910544,
        "Time(s)": 160
    },
    {
        "Altitude(m)": 702776.3320480149,
        "Argument of Periapsis(deg)": 0.009651629005510304,
        "Eccentricity": 0.0,
        "Inclination(deg)": 45.0,
        "Latitude(deg)": 16.03598035423048,
        "Longitude(deg)": 122.73759602168488,
        "Mean Anomaly(deg)": 157.04558358023377,
        "RAAN(deg)": 59.990889144343306,
        "Satellite Name": "Constellation 1 273",
        "Satellite Number": 273,
        "Semi-Major Axis(m)": 7083131.272910544,
        "Time(s)": 161
    },
    {
        "Altitude(m)": 702774.5396346533,
        "Argument of Periapsis(deg)": 0.00971157701175571,
        "Eccentricity": 0.0,
        "Inclination(deg)": 45.0,
        "Latitude(deg)": 15.994578482754948,
        "Longitude(deg)": 122.77986887936959,
        "Mean Anomaly(deg)": 157.10628472048361,
        "RAAN(deg)": 59.99083255517773,
        "Satellite Name": "Constellation 1 273",
        "Satellite Number": 273,
        "Semi-Major Axis(m)": 7083131.272910544,
        "Time(s)": 162
    },
    {
        "Altitude(m)": 702772.763948394,
        "Argument of Periapsis(deg)": 0.009771525018001118,
        "Eccentricity": 0.0,
        "Inclination(deg)": 45.0,
        "Latitude(deg)": 15.95316647866385,
        "Longitude(deg)": 122.8221224586115,
        "Mean Anomaly(deg)": 157.16698586073352,
        "RAAN(deg)": 59.99077596601218,
        "Satellite Name": "Constellation 1 273",
        "Satellite Number": 273,
        "Semi-Major Axis(m)": 7083131.272910544,
        "Time(s)": 163
    },
    {
        "Altitude(m)": 702771.0050148226,
        "Argument of Periapsis(deg)": 0.00983147302424652,
        "Eccentricity": 0.0,
        "Inclination(deg)": 45.0,
        "Latitude(deg)": 15.911744373688052,
        "Longitude(deg)": 122.8643571507992,
        "Mean Anomaly(deg)": 157.22768700098342,
        "RAAN(deg)": 59.990719376846606,
        "Satellite Name": "Constellation 1 273",
        "Satellite Number": 273,
        "Semi-Major Axis(m)": 7083131.272910544,
        "Time(s)": 164
    },
    {
        "Altitude(m)": 702769.2628594673,
        "Argument of Periapsis(deg)": 0.009891421030491928,
        "Eccentricity": 0.0,
        "Inclination(deg)": 45.0,
        "Latitude(deg)": 15.870312199521358,
        "Longitude(deg)": 122.90657284299925,
        "Mean Anomaly(deg)": 157.28838814123336,
        "RAAN(deg)": 59.99066278768103,
        "Satellite Name": "Constellation 1 273",
        "Satellite Number": 273,
        "Semi-Major Axis(m)": 7083131.272910544,
        "Time(s)": 165
    },
    {
        "Altitude(m)": 702767.5375077747,
        "Argument of Periapsis(deg)": 0.009951369036737332,
        "Eccentricity": 0.0,
        "Inclination(deg)": 45.0,
        "Latitude(deg)": 15.828869987820287,
        "Longitude(deg)": 122.9487695903443,
        "Mean Anomaly(deg)": 157.34908928148323,
        "RAAN(deg)": 59.99060619851546,
        "Satellite Name": "Constellation 1 273",
        "Satellite Number": 273,
        "Semi-Major Axis(m)": 7083131.272910544,
        "Time(s)": 166
    },
    {
        "Altitude(m)": 702765.8289851366,
        "Argument of Periapsis(deg)": 0.010011317042982738,
        "Eccentricity": 0.0,
        "Inclination(deg)": 45.0,
        "Latitude(deg)": 15.78741777020433,
        "Longitude(deg)": 122.99094744793591,
        "Mean Anomaly(deg)": 157.40979042173313,
        "RAAN(deg)": 59.99054960934989,
        "Satellite Name": "Constellation 1 273",
        "Satellite Number": 273,
        "Semi-Major Axis(m)": 7083131.272910544,
        "Time(s)": 167
    },
    {
        "Altitude(m)": 702764.1373168636,
        "Argument of Periapsis(deg)": 0.010071265049228144,
        "Eccentricity": 0.0,
        "Inclination(deg)": 45.0,
        "Latitude(deg)": 15.745955578255883,
        "Longitude(deg)": 123.03310647084494,
        "Mean Anomaly(deg)": 157.47049156198307,
        "RAAN(deg)": 59.99049302018432,
        "Satellite Name": "Constellation 1 273",
        "Satellite Number": 273,
        "Semi-Major Axis(m)": 7083131.272910544,
        "Time(s)": 168
    },
    {
        "Altitude(m)": 702762.4625282104,
        "Argument of Periapsis(deg)": 0.01013121305547355,
        "Eccentricity": 0.0,
        "Inclination(deg)": 45.0,
        "Latitude(deg)": 15.704483443520514,
        "Longitude(deg)": 123.07524671411126,
        "Mean Anomaly(deg)": 157.53119270223294,
        "RAAN(deg)": 59.99043643101874,
        "Satellite Name": "Constellation 1 273",
        "Satellite Number": 273,
        "Semi-Major Axis(m)": 7083131.272910544,
        "Time(s)": 169
    },
    {
        "Altitude(m)": 702760.8046443516,
        "Argument of Periapsis(deg)": 0.010191161061718957,
        "Eccentricity": 0.0,
        "Inclination(deg)": 45.0,
        "Latitude(deg)": 15.663001397506946,
        "Longitude(deg)": 123.11736823274391,
        "Mean Anomaly(deg)": 157.59189384248282,
        "RAAN(deg)": 59.99037984185317,
        "Satellite Name": "Constellation 1 273",
        "Satellite Number": 273,
        "Semi-Major Axis(m)": 7083131.272910544,
        "Time(s)": 170
    }
]